FORMOSAT 7-1            
1 44349U 19036L   26087.75779982  .00003483  00000+0  27591-3 0  9994
2 44349  23.9966 214.4786 0000566 349.7041  10.3448 14.96133125372599
FORMOSAT 7-4            
1 44350U 19036M   26087.84671684  .00003481  00000+0  27581-3 0  9993
2 44350  23.9982 275.9840 0000993 351.1222   8.9261 14.96128454372027
FORMOSAT 7-2            
1 44351U 19036N   26087.73571370  .00003517  00000+0  27888-3 0  9993
2 44351  23.9995 331.0449 0000505   2.7296 357.3208 14.96132040371522
FORMOSAT 7-6            
1 44353U 19036Q   26087.86924889  .00003472  00000+0  27492-3 0  9997
2 44353  23.9973 150.9656 0000772 225.4280 134.6158 14.96140462369772
FORMOSAT 7-5            
1 44358U 19036V   26087.31307381  .00003259  00000+0  25652-3 0  9993
2 44358  23.9989  93.4600 0000233  29.0542 330.9971 14.96133001370222
METEOR-M2 2             
1 44387U 19038A   26087.88240126 -.00000047  00000+0 -45061-6 0  9995
2 44387  98.9111  74.0019 0000290 197.7540 162.3628 14.24340576349866
COSMOS 2535             
1 44421U 19039A   26087.85721697  .00001642  00000+0  16806-3 0  9991
2 44421  97.5863 119.0700 0009852 116.2626 243.9606 14.91784267364665
GLOBAL-4                
1 44499U 19054E   26087.11078684  .00046097  00000+0  62232-3 0  9990
2 44499  45.0092 341.6360 0004890 160.6358 199.4723 15.57094208367692
ZY-1 02D                
1 44528U 19059A   26087.83955296  .00000161  00000+0  70762-4 0  9990
2 44528  98.3269 152.1421 0001951  44.3863 315.7479 14.35457583342811
TAURUS-1 (JINNIUZUO 1)  
1 44530U 19059C   26087.87665471  .00013118  00000+0  21367-2 0  9991
2 44530  98.6331 247.8104 0009112 196.8762 163.2141 14.71115426346830
ZHUHAI-1 03B            
1 44536U 19060C   26087.83734220  .00040328  00000+0  73442-3 0  9999
2 44536  97.5427 241.5972 0008741 247.2434 112.7893 15.49342760363862
ZHUHAI-1 03C            
1 44537U 19060D   26087.86126517  .00193099  00000+0  12564-2 0  9998
2 44537  97.5511 251.7688 0010182 204.5854 155.4927 15.75310583364497
ZHUHAI-1 03D            
1 44538U 19060E   26087.84504266  .00037007  00000+0  78397-3 0  9991
2 44538  97.5275 234.4372 0008314 231.1563 128.8944 15.44974276363651
ZHUHAI-1 03E            
1 44539U 19060F   26087.85189780  .00022937  00000+0  61008-3 0  9990
2 44539  97.5489 235.2341 0004955 312.3528  47.7296 15.38226483363409
ATLAS 5 CENTAUR DEB     
1 44694U 18079BG  26086.55287992 -.00000142  00000+0  00000+0 0  9997
2 44694  13.5379  45.9739 4743096 286.0802  28.1330  1.77432628 45111
GAOFEN-7                
1 44703U 19072A   26087.82778844  .00004999  00000+0  22457-3 0  9991
2 44703  97.2511 152.2850 0013881 321.7034  38.3215 15.21508524355423
JILIN-1 GAOFEN 2A       
1 44777U 19075A   26087.85981015  .00017933  00000+0  49628-3 0  9995
2 44777  97.4986 169.9066 0006415  24.1961 335.9583 15.37039469352531
