[{"OBJECT_NAME":"FORMOSAT 7-1","OBJECT_ID":"2019-036L","EPOCH":"2026-03-28T18:11:13.904448","MEAN_MOTION":14.96133125,"ECCENTRICITY":5.66e-5,"INCLINATION":23.9966,"RA_OF_ASC_NODE":214.4786,"ARG_OF_PERICENTER":349.7041,"MEAN_ANOMALY":10.3448,"EPHEMERIS_TYPE":0,"CLASSIFICATION_TYPE":"U","NORAD_CAT_ID":44349,"ELEMENT_SET_NO":999,"REV_AT_EPOCH":37259,"BSTAR":0.00027591,"MEAN_MOTION_DOT":3.483e-5,"MEAN_MOTION_DDOT":0},{"OBJECT_NAME":"FORMOSAT 7-4","OBJECT_ID":"2019-036M","EPOCH":"2026-03-28T20:19:16.334976","MEAN_MOTION":14.96128454,"ECCENTRICITY":9.93e-5,"INCLINATION":23.9982,"RA_OF_ASC_NODE":275.984,"ARG_OF_PERICENTER":351.1222,"MEAN_ANOMALY":8.9261,"EPHEMERIS_TYPE":0,"CLASSIFICATION_TYPE":"U","NORAD_CAT_ID":44350,"ELEMENT_SET_NO":999,"REV_AT_EPOCH":37202,"BSTAR":0.00027581,"MEAN_MOTION_DOT":3.481e-5,"MEAN_MOTION_DDOT":0},{"OBJECT_NAME":"FORMOSAT 7-2","OBJECT_ID":"2019-036N","EPOCH":"2026-03-28T17:39:25.663680","MEAN_MOTION":14.9613204,"ECCENTRICITY":5.05e-5,"INCLINATION":23.9995,"RA_OF_ASC_NODE":331.0449,"ARG_OF_PERICENTER":2.7296,"MEAN_ANOMALY":357.3208,"EPHEMERIS_TYPE":0,"CLASSIFICATION_TYPE":"U","NORAD_CAT_ID":44351,"ELEMENT_SET_NO":999,"REV_AT_EPOCH":37152,"BSTAR":0.00027888,"MEAN_MOTION_DOT":3.517e-5,"MEAN_MOTION_DDOT":0},{"OBJECT_NAME":"FORMOSAT 7-6","OBJECT_ID":"2019-036Q","EPOCH":"2026-03-28T20:51:43.104096","MEAN_MOTION":14.96140462,"ECCENTRICITY":7.72e-5,"INCLINATION":23.9973,"RA_OF_ASC_NODE":150.9656,"ARG_OF_PERICENTER":225.428,"MEAN_ANOMALY":134.6158,"EPHEMERIS_TYPE":0,"CLASSIFICATION_TYPE":"U","NORAD_CAT_ID":44353,"ELEMENT_SET_NO":999,"REV_AT_EPOCH":36977,"BSTAR":0.00027492,"MEAN_MOTION_DOT":3.472e-5,"MEAN_MOTION_DDOT":0},{"OBJECT_NAME":"FORMOSAT 7-5","OBJECT_ID":"2019-036V","EPOCH":"2026-03-28T07:30:49.577184","MEAN_MOTION":14.96133001,"ECCENTRICITY":2.33e-5,"INCLINATION":23.9989,"RA_OF_ASC_NODE":93.46,"ARG_OF_PERICENTER":29.0542,"MEAN_ANOMALY":330.9971,"EPHEMERIS_TYPE":0,"CLASSIFICATION_TYPE":"U","NORAD_CAT_ID":44358,"ELEMENT_SET_NO":999,"REV_AT_EPOCH":37022,"BSTAR":0.00025652,"MEAN_MOTION_DOT":3.259e-5,"MEAN_MOTION_DDOT":0},{"OBJECT_NAME":"METEOR-M2 2","OBJECT_ID":"2019-038A","EPOCH":"2026-03-28T21:10:39.468864","MEAN_MOTION":14.24340576,"ECCENTRICITY":2.9e-5,"INCLINATION":98.9111,"RA_OF_ASC_NODE":74.0019,"ARG_OF_PERICENTER":197.754,"MEAN_ANOMALY":162.3628,"EPHEMERIS_TYPE":0,"CLASSIFICATION_TYPE":"U","NORAD_CAT_ID":44387,"ELEMENT_SET_NO":999,"REV_AT_EPOCH":34986,"BSTAR":-4.5061e-7,"MEAN_MOTION_DOT":-4.7e-7,"MEAN_MOTION_DDOT":0},{"OBJECT_NAME":"COSMOS 2535","OBJECT_ID":"2019-039A","EPOCH":"2026-03-28T20:34:23.546208","MEAN_MOTION":14.91784267,"ECCENTRICITY":0.0009852,"INCLINATION":97.5863,"RA_OF_ASC_NODE":119.07,"ARG_OF_PERICENTER":116.2626,"MEAN_ANOMALY":243.9606,"EPHEMERIS_TYPE":0,"CLASSIFICATION_TYPE":"U","NORAD_CAT_ID":44421,"ELEMENT_SET_NO":999,"REV_AT_EPOCH":36466,"BSTAR":0.00016806,"MEAN_MOTION_DOT":1.642e-5,"MEAN_MOTION_DDOT":0},{"OBJECT_NAME":"GLOBAL-4","OBJECT_ID":"2019-054E","EPOCH":"2026-03-28T02:39:31.982976","MEAN_MOTION":15.57094208,"ECCENTRICITY":0.00048908,"INCLINATION":45.0092,"RA_OF_ASC_NODE":341.636,"ARG_OF_PERICENTER":160.6358,"MEAN_ANOMALY":199.4723,"EPHEMERIS_TYPE":0,"CLASSIFICATION_TYPE":"U","NORAD_CAT_ID":44499,"ELEMENT_SET_NO":999,"REV_AT_EPOCH":36769,"BSTAR":0.00062231604,"MEAN_MOTION_DOT":0.00046097,"MEAN_MOTION_DDOT":0},{"OBJECT_NAME":"ZY-1 02D","OBJECT_ID":"2019-059A","EPOCH":"2026-03-28T20:08:57.375744","MEAN_MOTION":14.35457583,"ECCENTRICITY":0.0001951,"INCLINATION":98.3269,"RA_OF_ASC_NODE":152.1421,"ARG_OF_PERICENTER":44.3863,"MEAN_ANOMALY":315.7479,"EPHEMERIS_TYPE":0,"CLASSIFICATION_TYPE":"U","NORAD_CAT_ID":44528,"ELEMENT_SET_NO":999,"REV_AT_EPOCH":34281,"BSTAR":7.0762e-5,"MEAN_MOTION_DOT":1.61e-6,"MEAN_MOTION_DDOT":0},{"OBJECT_NAME":"TAURUS-1 (JINNIUZUO 1)","OBJECT_ID":"2019-059C","EPOCH":"2026-03-28T21:02:22.966944","MEAN_MOTION":14.71115426,"ECCENTRICITY":0.0009112,"INCLINATION":98.6331,"RA_OF_ASC_NODE":247.8104,"ARG_OF_PERICENTER":196.8762,"MEAN_ANOMALY":163.2141,"EPHEMERIS_TYPE":0,"CLASSIFICATION_TYPE":"U","NORAD_CAT_ID":44530,"ELEMENT_SET_NO":999,"REV_AT_EPOCH":34683,"BSTAR":0.0021367,"MEAN_MOTION_DOT":0.00013118,"MEAN_MOTION_DDOT":0},{"OBJECT_NAME":"ZHUHAI-1 03B","OBJECT_ID":"2019-060C","EPOCH":"2026-03-28T20:05:46.366080","MEAN_MOTION":15.4934276,"ECCENTRICITY":0.0008741,"INCLINATION":97.5427,"RA_OF_ASC_NODE":241.5972,"ARG_OF_PERICENTER":247.2434,"MEAN_ANOMALY":112.7893,"EPHEMERIS_TYPE":0,"CLASSIFICATION_TYPE":"U","NORAD_CAT_ID":44536,"ELEMENT_SET_NO":999,"REV_AT_EPOCH":36386,"BSTAR":0.00073442,"MEAN_MOTION_DOT":0.00040328,"MEAN_MOTION_DDOT":0},{"OBJECT_NAME":"ZHUHAI-1 03C","OBJECT_ID":"2019-060D","EPOCH":"2026-03-28T20:40:13.310688","MEAN_MOTION":15.75310583,"ECCENTRICITY":0.0010182,"INCLINATION":97.5511,"RA_OF_ASC_NODE":251.7688,"ARG_OF_PERICENTER":204.5854,"MEAN_ANOMALY":155.4927,"EPHEMERIS_TYPE":0,"CLASSIFICATION_TYPE":"U","NORAD_CAT_ID":44537,"ELEMENT_SET_NO":999,"REV_AT_EPOCH":36449,"BSTAR":0.0012564,"MEAN_MOTION_DOT":0.00193099,"MEAN_MOTION_DDOT":0},{"OBJECT_NAME":"ZHUHAI-1 03D","OBJECT_ID":"2019-060E","EPOCH":"2026-03-28T20:16:51.685824","MEAN_MOTION":15.44974276,"ECCENTRICITY":0.0008314,"INCLINATION":97.5275,"RA_OF_ASC_NODE":234.4372,"ARG_OF_PERICENTER":231.1563,"MEAN_ANOMALY":128.8944,"EPHEMERIS_TYPE":0,"CLASSIFICATION_TYPE":"U","NORAD_CAT_ID":44538,"ELEMENT_SET_NO":999,"REV_AT_EPOCH":36365,"BSTAR":0.00078397,"MEAN_MOTION_DOT":0.00037007,"MEAN_MOTION_DDOT":0},{"OBJECT_NAME":"ZHUHAI-1 03E","OBJECT_ID":"2019-060F","EPOCH":"2026-03-28T20:26:43.969920","MEAN_MOTION":15.38226483,"ECCENTRICITY":0.0004955,"INCLINATION":97.5489,"RA_OF_ASC_NODE":235.2341,"ARG_OF_PERICENTER":312.3528,"MEAN_ANOMALY":47.7296,"EPHEMERIS_TYPE":0,"CLASSIFICATION_TYPE":"U","NORAD_CAT_ID":44539,"ELEMENT_SET_NO":999,"REV_AT_EPOCH":36340,"BSTAR":0.00061008,"MEAN_MOTION_DOT":0.00022937,"MEAN_MOTION_DDOT":0},{"OBJECT_NAME":"ATLAS 5 CENTAUR DEB","OBJECT_ID":"2018-079BG","EPOCH":"2026-03-27T13:16:08.825088","MEAN_MOTION":1.77432628,"ECCENTRICITY":0.47430967,"INCLINATION":13.5379,"RA_OF_ASC_NODE":45.9739,"ARG_OF_PERICENTER":286.0802,"MEAN_ANOMALY":28.133,"EPHEMERIS_TYPE":0,"CLASSIFICATION_TYPE":"U","NORAD_CAT_ID":44694,"ELEMENT_SET_NO":999,"REV_AT_EPOCH":4511,"BSTAR":0,"MEAN_MOTION_DOT":-1.42e-6,"MEAN_MOTION_DDOT":0},{"OBJECT_NAME":"GAOFEN-7","OBJECT_ID":"2019-072A","EPOCH":"2026-03-28T19:52:00.921216","MEAN_MOTION":15.21508524,"ECCENTRICITY":0.0013881,"INCLINATION":97.2511,"RA_OF_ASC_NODE":152.285,"ARG_OF_PERICENTER":321.7034,"MEAN_ANOMALY":38.3215,"EPHEMERIS_TYPE":0,"CLASSIFICATION_TYPE":"U","NORAD_CAT_ID":44703,"ELEMENT_SET_NO":999,"REV_AT_EPOCH":35542,"BSTAR":0.00022457,"MEAN_MOTION_DOT":4.999e-5,"MEAN_MOTION_DDOT":0},{"OBJECT_NAME":"JILIN-1 GAOFEN 2A","OBJECT_ID":"2019-075A","EPOCH":"2026-03-28T20:38:07.596960","MEAN_MOTION":15.37039469,"ECCENTRICITY":0.0006415,"INCLINATION":97.4986,"RA_OF_ASC_NODE":169.9066,"ARG_OF_PERICENTER":24.1961,"MEAN_ANOMALY":335.9583,"EPHEMERIS_TYPE":0,"CLASSIFICATION_TYPE":"U","NORAD_CAT_ID":44777,"ELEMENT_SET_NO":999,"REV_AT_EPOCH":35253,"BSTAR":0.00049628,"MEAN_MOTION_DOT":0.00017933,"MEAN_MOTION_DDOT":0}]
